#dP2019 12 12  0  0  0.00000000      97 __u+U IGS08 FIT  IAC
## 2083 345600.00000000   900.00000000 58829 0.0000000000000
+  114   C01C02C03C04C05C06C07C08C09C10C11C12C13C14C16C19C20
+        C21C22C23C24C25C26C27C28C29C30C32C33C34C35C36C37E01
+        E02E03E04E05E07E08E09E11E12E13E14E15E18E19E21E24E25
+        E26E27E30E31E33E36G01G02G03G04G05G06G07G08G09G10G11
+        G12G13G14G15G16G17G18G19G20G21G22G23G24G25G26G27G28
+        G29G30G31G32J01J02J03J07R01R02R03R05R07R08R09R11R12
+        R13R14R15R16R17R18R19R20R21R22R23R26  0  0  0  0  0
++        13 13 13 13 12  8  8  8  8  8  7  7  9  7  8  7  7
++         7  7  7  7  7  7  7  7  7  7  7  8  7  8  7  7  4
++         4  3  4  3  4  4  3  4  4  4  4  4  4  4  4  3  4
++         4  4  4  4  4  4  3  3  3  3  3  3  3  3  3  3  3
++         3  3  3  3  3  3  3  3  3  3  3  3  3  3  5  3  3
++         3  3  3  3  8  9  8 13  6  5  5  5  5  5  5  5  5
++         5  5  5  6  5  5  6  6  5  5  5  8  0  0  0  0  0
%c M  cc GPS ccc cccc cccc cccc cccc ccccc ccccc ccccc ccccc
%c cc cc ccc ccc cccc cccc cccc cccc ccccc ccccc ccccc ccccc
%f  1.2500000  1.025000000  0.00000000000  0.000000000000000
%f  0.0000000  0.000000000  0.00000000000  0.000000000000000
%i    0    0    0    0      0      0      0      0         0
%i    0    0    0    0      0      0      0      0         0
/* INFORMATION & ANALYSIS CENTER (IAC)            FINAL DATA
/* S/V CLOCKS ARE ALIGNED TO GNSS TIME                      
/* G:C1WC2W R:C1PC2P E:C1XC5X C:C2IC6I J:C1CC2S             
/* PCV:IGS14_2082 OL/AL:FES2004  NONE     YN ORB:CoN CLK:CoN
*  2019 12 12  2 45  0.00000000
PC01 -32282.401365  27101.307078   -965.476437    248.691422
PC02   4421.631702  41919.301661    918.982227    682.219811
PC03 -14795.737677  39512.188336     29.227718    181.484589
PC04 -39614.799296  14401.950387   -512.894384   -428.983004
PC05  21914.000750  36033.066839   1198.274746   -222.765655
PC06  -7203.086457  30959.945137  28238.650877    288.840914
PC07 -21200.552412  22807.362805 -28438.368777    176.481888
PC08 -20880.528833  36358.347396   2427.077696    -53.417311
PC09   4653.627717  38783.273243  16552.040448    181.255864
PC10  -2946.579572  25938.038247 -32961.600413   -452.646634
PC11  15672.346939   5011.561992  22593.251438    -55.134345
PC12  10949.387893  23027.825214  11338.427488    303.475819
PC13  -9476.634952  37355.418354  16868.461056    151.504156
PC14  26645.851517   6108.426490  -5447.189363    361.276177
PC16  -4285.930478  32321.447083  26862.617332   -935.749398
PC19 -24344.491191    910.780551  13637.169990    268.404027
PC20 -25117.803804 -11811.290979  -3009.531383   -405.321623
PC21  10895.404985  17928.097966  18402.006782    114.026093
PC22  -9442.508971  13302.044859  22639.833875   -501.328364
PC23  16733.948203 -20691.327016   8416.265856   -869.781255
PC24  17167.381051   5672.108593 -21266.449145   -883.711337
PC25  23810.308973 -11564.343248  -8870.796795   -444.167330
PC26   1345.265761  18213.738284 -21092.927341    493.275486
PC27  -5510.214381 -27218.906647  -2665.326387    240.975090
PC28   6890.792673 -22975.890281  14278.448841    232.013559
PC29 -15003.827152   5906.267148 -22775.528800    158.462146
PC30 -15158.103476 -15202.768385 -17814.493505    238.680815
PC32 -11042.723630 -17857.098284 -18379.497895   -856.728745
PC33  24365.462206   -987.487629 -13557.467667   -660.447829
PC34  15233.353647  14925.957496  18009.177761   -303.983659
PC35  -6202.011986  23146.334136 -14318.775023   -648.740318
PC36 -24073.178502  10833.806460   9076.434216   -876.779522
PC37   -308.799239 -18537.984296  20882.762704   -886.240904
PE01  14928.055795 -16979.342159  19113.527530   -750.531177
PE02 -14842.389478  16985.544885 -19154.682893     98.104487
PE03  -3914.635904  18813.875529  22502.602011   -242.883972
PE04 -13917.436675 -24161.743438  -9938.389540   -423.461349
PE05 -19637.923119   2388.899240  22013.074160   -423.575875
PE07  23788.057200  15327.315086  -8666.575336   -311.498011
PE08  14271.549461  23993.364134   9815.101628   6250.476395
PE09 -23877.257889 -15161.319773   8752.296921   6224.201281
PE11 -14302.080463  -8892.037070 -24340.404945    324.980700
PE12  -2655.724316 -25980.974079 -13915.401854   6055.894812
PE13  14187.834762   9040.433288  24365.074279    396.285706
PE14  12426.128930  -8346.420957  17944.305986   -827.267498
PE15   2926.531296  25822.213400  14180.004950    884.688486
PE18 -18154.735923  10105.712208 -25113.140730   -923.004212
PE19   5784.619418 -17376.105468 -23257.744180     -2.477296
PE21  28048.976814  -9120.445827   2524.900722   -570.854511
PE24 -24768.944150  -4349.079191  15589.787688   5720.682445
PE25 -28076.854632   9050.961298  -2412.611935   -498.196107
PE26  17356.984378 -13154.738614  20061.134893   3774.017476
PE27  24788.970339   4189.192737 -15623.898708    326.927052
PE30   6853.500739  15105.745731 -24519.695284   4312.814739
PE31  -6979.766867 -15005.664303  24553.090975   -470.883386
PE33  10091.570715 -27484.152405   4370.322827   -471.525422
PE36 -17143.204671  13073.961157 -20269.211455    625.438662
PG01  14218.896708 -22223.416885   -279.491567   -226.794876
PG02 -17980.730813   7021.996855 -17563.779502   -364.597248
PG03  11360.175094 -13352.842486 -19985.132522    -51.392985
PG04   4273.998449 -19466.949120 -17477.525012    -19.546238
PG05 -25999.406318   3069.972672   4917.099518     -4.581604
PG06 -12897.698963  -7315.193606 -21987.580874   -150.923760
PG07   1682.486455 -21832.236898  14970.658591   -168.062868
PG08  11266.928724 -10436.688542  21681.051917    -16.455129
PG09  -5030.440819 -24172.941337  -9827.451622   -105.920595
PG10  18290.079260  11614.149928  15582.095045   -168.858561
PG11   8243.788503 -24268.729647   7046.206746   -421.976789
PG12 -16380.879328  10428.504982 -18261.986639    174.149237
PG13 -15393.355197   1068.821442  21502.758058    -27.221734
PG14  17157.639974  12824.380013 -15492.795260    -45.353969
PG15 -10475.703829  12348.516081  20703.126908   -266.322058
PG16  26474.791141    945.334267   3868.996166   -102.124533
PG17 -14408.778472 -21175.273796  -6736.448567    179.147456
PG18  16858.910741 -18773.366262   7633.296095    106.102728
PG19 -16368.259250 -15575.420073 -14242.333704   -227.547424
PG20   8274.013290  14601.239711  20523.662548    527.639031
PG21   2379.811947  20894.171707  17140.413961    -72.271108
PG22  18668.351220 -11577.999124 -14638.648460   -777.057901
PG23   2775.482262 -20083.572850 -16607.715504   -150.110025
PG24 -14307.163152  22008.823126   2261.863184     -6.092452
PG25  -1026.267227  15127.334609 -22021.322874    -17.371900
PG26  25563.454283   4699.948551  -5998.691392    103.742491
PG27  16702.474847   2218.499593  20497.644793   -147.669641
PG28 -17792.992997 -12907.214046  15418.584857    751.042728
PG29   2871.748276  24190.869055 -10585.288894     20.870618
PG30  -7775.185379 -15012.801960  20472.683045   -103.917041
PG31  14889.502288   4937.597092 -21507.522378     -9.200360
PG32  16217.144903  19819.341752  -7241.444581    152.764726
PJ01 -28052.241642  21801.410245  27771.441710   -328.193714
PJ02 -35603.219722  20970.120892  -3955.007289     -0.294256
PJ03 -19035.321213  26134.179185 -22464.575213     -9.124453
PJ07 -25386.653120  33657.236987      3.541761     -0.040511
PR01  20671.293622   4272.725112 -14318.574864     53.992823
PR02   5046.535970  -9702.496597 -23012.312905    401.997176
PR03 -11805.577893 -16171.840284 -15740.825753      6.333433
PR05 -19302.490306  -2915.128558  16407.212098     41.056714
PR07  12275.891271  16280.259496  15381.923858    -30.609108
PR08  21736.286209  13360.328687   -286.781966     13.850435
PR09 -14004.754869  15602.040621 -14561.842281    105.797994
PR11  16712.292869   1534.175022 -19176.358637     16.957685
PR12  23054.178282  -9437.826378  -5520.178114     87.135586
PR13  16200.695755 -15488.562715  12164.988544    -32.136254
PR14     59.841437 -12188.267406  22420.398845     45.968101
PR15 -16036.776892  -2048.910168  19751.206517    105.182215
PR16 -22833.701238   9945.761904   5184.684274     -0.400935
PR17  -1646.140161 -24851.250912  -5599.541316    283.112672
PR18  -8255.697914 -14162.091474 -19504.725663     17.661081
PR19 -10501.150177   3502.275623 -22973.632457    -68.475296
PR20  -6750.380046  21452.449309 -12061.604561   -398.605522
PR21   1986.694486  24582.785317   6457.355257    -91.067737
PR22   8933.306118  11467.716515  21003.799025     -5.118580
PR23   9935.062957 -10300.399440  21114.989880    272.623589
PR26  -7638.979233  18956.107079 -15226.457810     14.684695
EOF
